[{"OBJECT_NAME":"FLOCK 4G-24","OBJECT_ID":"2025-009AE","EPOCH":"2026-03-09T17:24:07.838208","MEAN_MOTION":15.27784978,"ECCENTRICITY":0.0001802,"INCLINATION":97.4061,"RA_OF_ASC_NODE":151.514,"ARG_OF_PERICENTER":280.2808,"MEAN_ANOMALY":79.8228,"EPHEMERIS_TYPE":0,"CLASSIFICATION_TYPE":"U","NORAD_CAT_ID":62637,"ELEMENT_SET_NO":999,"REV_AT_EPOCH":6373,"BSTAR":0.00038996067,"MEAN_MOTION_DOT":0.00010513,"MEAN_MOTION_DDOT":0},{"OBJECT_NAME":"STARLINK-36047","OBJECT_ID":"2025-278E","EPOCH":"2026-03-09T12:45:01.080864","MEAN_MOTION":15.27601267,"ECCENTRICITY":0.00014602,"INCLINATION":43.0018,"RA_OF_ASC_NODE":115.3715,"ARG_OF_PERICENTER":254.6191,"MEAN_ANOMALY":105.4499,"EPHEMERIS_TYPE":0,"CLASSIFICATION_TYPE":"U","NORAD_CAT_ID":66795,"ELEMENT_SET_NO":999,"REV_AT_EPOCH":1518,"BSTAR":0.00059027417,"MEAN_MOTION_DOT":0.00016027,"MEAN_MOTION_DDOT":0}]
